[{"OBJECT_NAME":"SINOD-D 1","OBJECT_ID":"2015-058E","EPOCH":"2026-03-09T16:57:39.773376","MEAN_MOTION":14.95054547,"ECCENTRICITY":0.01172808,"INCLINATION":64.7759,"RA_OF_ASC_NODE":210.2419,"ARG_OF_PERICENTER":93.1753,"MEAN_ANOMALY":268.2787,"EPHEMERIS_TYPE":0,"CLASSIFICATION_TYPE":"U","NORAD_CAT_ID":40968,"ELEMENT_SET_NO":999,"REV_AT_EPOCH":10178,"BSTAR":0.00050694767,"MEAN_MOTION_DOT":6.216e-5,"MEAN_MOTION_DDOT":0},{"OBJECT_NAME":"FENGYUN 1C DEB","OBJECT_ID":"1999-025DZG","EPOCH":"2026-02-24T08:24:33.782400","MEAN_MOTION":14.7853018,"ECCENTRICITY":0.01019027,"INCLINATION":99.0018,"RA_OF_ASC_NODE":260.336,"ARG_OF_PERICENTER":182.3725,"MEAN_ANOMALY":177.7013,"EPHEMERIS_TYPE":0,"CLASSIFICATION_TYPE":"U","NORAD_CAT_ID":36686,"ELEMENT_SET_NO":999,"REV_AT_EPOCH":66939,"BSTAR":0.00093391276,"MEAN_MOTION_DOT":7.381e-5,"MEAN_MOTION_DDOT":0}]
